{
  "type": "FeatureCollection",
  "features": [
    {
      "type": "Feature",
      "properties": {
        "norad_id": 66653,
        "name": "2025-274D",
        "group": "last-30-days",
        "lat": -17.082199849132582,
        "lon": -90.58073857954146,
        "alt_km": 593.419592784825,
        "timestamp": "2025-12-05T16:54:13.487365+00:00",
        "meta_object_name": "2025-274D",
        "meta_object_id": "2025-274D",
        "meta_epoch": "2025-12-05T07:19:20.633952",
        "meta_mean_motion": 14.91849081,
        "meta_eccentricity": 0.00112727,
        "meta_inclination": 97.7388,
        "meta_ra_of_asc_node": 266.6323,
        "meta_arg_of_pericenter": 282.2972,
        "meta_mean_anomaly": 77.6985,
        "meta_ephemeris_type": 0,
        "meta_classification_type": "U",
        "meta_norad_cat_id": 66653,
        "meta_element_set_no": 999,
        "meta_rev_at_epoch": 129,
        "meta_bstar": 0.00042671241,
        "meta_mean_motion_dot": 4.259e-05,
        "meta_mean_motion_ddot": 0,
        "tle_line1": "1 66653U 25274D   25339.30509993  .00004259  00000+0  42671-3 0  9998",
        "tle_line2": "2 66653  97.7388 266.6323 0011272 282.2972  77.6985 14.91849081  1292"
      },
      "geometry": {
        "type": "Point",
        "coordinates": [
          -90.58073857954146,
          -17.082199849132582
        ]
      }
    },
    {
      "type": "Feature",
      "properties": {
        "norad_id": 66654,
        "name": "JACK E",
        "group": "last-30-days",
        "lat": -11.842840743042276,
        "lon": -91.3389797928704,
        "alt_km": 592.6878314336927,
        "timestamp": "2025-12-05T16:54:13.487375+00:00",
        "meta_object_name": "JACK E",
        "meta_object_id": "2025-274E",
        "meta_epoch": "2025-12-05T07:17:59.445600",
        "meta_mean_motion": 14.92018904,
        "meta_eccentricity": 0.00118187,
        "meta_inclination": 97.7389,
        "meta_ra_of_asc_node": 266.634,
        "meta_arg_of_pericenter": 283.6965,
        "meta_mean_anomaly": 76.2938,
        "meta_ephemeris_type": 0,
        "meta_classification_type": "U",
        "meta_norad_cat_id": 66654,
        "meta_element_set_no": 999,
        "meta_rev_at_epoch": 129,
        "meta_bstar": 0.00053100408,
        "meta_mean_motion_dot": 5.337e-05,
        "meta_mean_motion_ddot": 0,
        "tle_line1": "1 66654U 25274E   25339.30416025  .00005337  00000+0  53100-3 0  9999",
        "tle_line2": "2 66654  97.7389 266.6340 0011818 283.6965  76.2938 14.92018904  1292"
      },
      "geometry": {
        "type": "Point",
        "coordinates": [
          -91.3389797928704,
          -11.842840743042276
        ]
      }
    },
    {
      "type": "Feature",
      "properties": {
        "norad_id": 66655,
        "name": "2025-274F",
        "group": "last-30-days",
        "lat": -6.785062887923031,
        "lon": -92.04511533991932,
        "alt_km": 590.8552380326028,
        "timestamp": "2025-12-05T16:54:13.487384+00:00",
        "meta_object_name": "2025-274F",
        "meta_object_id": "2025-274F",
        "meta_epoch": "2025-12-05T07:16:42.301632",
        "meta_mean_motion": 14.92235438,
        "meta_eccentricity": 0.00076843,
        "meta_inclination": 97.7362,
        "meta_ra_of_asc_node": 266.6343,
        "meta_arg_of_pericenter": 312.6423,
        "meta_mean_anomaly": 47.4148,
        "meta_ephemeris_type": 0,
        "meta_classification_type": "U",
        "meta_norad_cat_id": 66655,
        "meta_element_set_no": 999,
        "meta_rev_at_epoch": 129,
        "meta_bstar": 0.00039759604,
        "meta_mean_motion_dot": 4.001e-05,
        "meta_mean_motion_ddot": 0,
        "tle_line1": "1 66655U 25274F   25339.30326738  .00004001  00000+0  39760-3 0  9994",
        "tle_line2": "2 66655  97.7362 266.6343 0007684 312.6423  47.4148 14.92235438  1291"
      },
      "geometry": {
        "type": "Point",
        "coordinates": [
          -92.04511533991932,
          -6.785062887923031
        ]
      }
    },
    {
      "type": "Feature",
      "properties": {
        "norad_id": 66656,
        "name": "2025-274G",
        "group": "last-30-days",
        "lat": -6.040898981232124,
        "lon": -92.14599502485525,
        "alt_km": 591.8652637706427,
        "timestamp": "2025-12-05T16:54:13.487393+00:00",
        "meta_object_name": "2025-274G",
        "meta_object_id": "2025-274G",
        "meta_epoch": "2025-12-05T05:39:55.882080",
        "meta_mean_motion": 14.92203569,
        "meta_eccentricity": 0.00124059,
        "meta_inclination": 97.7386,
        "meta_ra_of_asc_node": 266.5695,
        "meta_arg_of_pericenter": 285.6584,
        "meta_mean_anomaly": 74.3266,
        "meta_ephemeris_type": 0,
        "meta_classification_type": "U",
        "meta_norad_cat_id": 66656,
        "meta_element_set_no": 999,
        "meta_rev_at_epoch": 128,
        "meta_bstar": 0.00061629871,
        "meta_mean_motion_dot": 6.234e-05,
        "meta_mean_motion_ddot": 0,
        "tle_line1": "1 66656U 25274G   25339.23606345  .00006234  00000+0  61630-3 0  9993",
        "tle_line2": "2 66656  97.7386 266.5695 0012405 285.6584  74.3266 14.92203569  1280"
      },
      "geometry": {
        "type": "Point",
        "coordinates": [
          -92.14599502485525,
          -6.040898981232124
        ]
      }
    },
    {
      "type": "Feature",
      "properties": {
        "norad_id": 66657,
        "name": "SPIRONE",
        "group": "last-30-days",
        "lat": -0.3208598005857223,
        "lon": -92.92515615428366,
        "alt_km": 589.3046971771473,
        "timestamp": "2025-12-05T16:54:13.487403+00:00",
        "meta_object_name": "SPIRONE",
        "meta_object_id": "2025-274H",
        "meta_epoch": "2025-12-05T07:15:00.922464",
        "meta_mean_motion": 14.92384278,
        "meta_eccentricity": 0.00110607,
        "meta_inclination": 97.7387,
        "meta_ra_of_asc_node": 266.636,
        "meta_arg_of_pericenter": 304.7015,
        "meta_mean_anomaly": 55.3162,
        "meta_ephemeris_type": 0,
        "meta_classification_type": "U",
        "meta_norad_cat_id": 66657,
        "meta_element_set_no": 999,
        "meta_rev_at_epoch": 129,
        "meta_bstar": 0.00060861124,
        "meta_mean_motion_dot": 6.182e-05,
        "meta_mean_motion_ddot": 0,
        "tle_line1": "1 66657U 25274H   25339.30209401  .00006182  00000+0  60861-3 0  9991",
        "tle_line2": "2 66657  97.7387 266.6360 0011060 304.7015  55.3162 14.92384278  1292"
      },
      "geometry": {
        "type": "Point",
        "coordinates": [
          -92.92515615428366,
          -0.3208598005857223
        ]
      }
    },
    {
      "type": "Feature",
      "properties": {
        "norad_id": 66658,
        "name": "2025-274J",
        "group": "last-30-days",
        "lat": 5.32956003901542,
        "lon": -93.69315526408465,
        "alt_km": 588.1251221500825,
        "timestamp": "2025-12-05T16:54:13.487412+00:00",
        "meta_object_name": "2025-274J",
        "meta_object_id": "2025-274J",
        "meta_epoch": "2025-12-05T07:13:33.345696",
        "meta_mean_motion": 14.92557518,
        "meta_eccentricity": 0.00116162,
        "meta_inclination": 97.7389,
        "meta_ra_of_asc_node": 266.6374,
        "meta_arg_of_pericenter": 307.5835,
        "meta_mean_anomaly": 52.4328,
        "meta_ephemeris_type": 0,
        "meta_classification_type": "U",
        "meta_norad_cat_id": 66658,
        "meta_element_set_no": 999,
        "meta_rev_at_epoch": 129,
        "meta_bstar": 0.0005786355,
        "meta_mean_motion_dot": 5.901e-05,
        "meta_mean_motion_ddot": 0,
        "tle_line1": "1 66658U 25274J   25339.30108039  .00005901  00000+0  57864-3 0  9994",
        "tle_line2": "2 66658  97.7389 266.6374 0011616 307.5835  52.4328 14.92557518  1299"
      },
      "geometry": {
        "type": "Point",
        "coordinates": [
          -93.69315526408465,
          5.32956003901542
        ]
      }
    },
    {
      "type": "Feature",
      "properties": {
        "norad_id": 66659,
        "name": "JACK K",
        "group": "last-30-days",
        "lat": 11.335812281563227,
        "lon": -94.52575226194608,
        "alt_km": 586.9964728753912,
        "timestamp": "2025-12-05T16:54:13.487421+00:00",
        "meta_object_name": "JACK K",
        "meta_object_id": "2025-274K",
        "meta_epoch": "2025-12-04T08:40:38.250048",
        "meta_mean_motion": 14.92734551,
        "meta_eccentricity": 0.0012354,
        "meta_inclination": 97.7386,
        "meta_ra_of_asc_node": 265.7163,
        "meta_arg_of_pericenter": 312.2173,
        "meta_mean_anomaly": 47.7997,
        "meta_ephemeris_type": 0,
        "meta_classification_type": "U",
        "meta_norad_cat_id": 66659,
        "meta_element_set_no": 999,
        "meta_rev_at_epoch": 115,
        "meta_bstar": 0.00069302,
        "meta_mean_motion_dot": 7.113e-05,
        "meta_mean_motion_ddot": 0,
        "tle_line1": "1 66659U 25274K   25338.36155382  .00007113  00000+0  69302-3 0  9990",
        "tle_line2": "2 66659  97.7386 265.7163 0012354 312.2173  47.7997 14.92734551  1159"
      },
      "geometry": {
        "type": "Point",
        "coordinates": [
          -94.52575226194608,
          11.335812281563227
        ]
      }
    }
  ]
}